{
  "type": "FeatureCollection",
  "features": [
    {
      "type": "Feature",
      "properties": {
        "norad_id": 34492,
        "name": "IRIDIUM 33 DEB",
        "group": "iridium-33-debris",
        "lat": -25.40133925733499,
        "lon": -30.1476687609495,
        "alt_km": 879.9090236647698,
        "timestamp": "2025-12-20T09:36:02.033737+00:00",
        "meta_object_name": "IRIDIUM 33 DEB",
        "meta_object_id": "1997-051GH",
        "meta_epoch": "2025-12-19T10:45:18.347328",
        "meta_mean_motion": 14.25846982,
        "meta_eccentricity": 0.0188646,
        "meta_inclination": 86.4707,
        "meta_ra_of_asc_node": 331.9164,
        "meta_arg_of_pericenter": 216.3823,
        "meta_mean_anomaly": 273.3437,
        "meta_ephemeris_type": 0,
        "meta_classification_type": "U",
        "meta_norad_cat_id": 34492,
        "meta_element_set_no": 999,
        "meta_rev_at_epoch": 85154,
        "meta_bstar": 0.0022012,
        "meta_mean_motion_dot": 6.332e-05,
        "meta_mean_motion_ddot": 0,
        "tle_line1": "1 34492U 97051GH  25353.44812902  .00006332  00000+0  22012-2 0  9994",
        "tle_line2": "2 34492  86.4707 331.9164 0188646 216.3823 273.3437 14.25846982851542"
      },
      "geometry": {
        "type": "Point",
        "coordinates": [
          -30.1476687609495,
          -25.40133925733499
        ]
      }
    },
    {
      "type": "Feature",
      "properties": {
        "norad_id": 34497,
        "name": "IRIDIUM 33 DEB",
        "group": "iridium-33-debris",
        "lat": -75.72903676159581,
        "lon": -116.04046181938567,
        "alt_km": 777.7820987800078,
        "timestamp": "2025-12-20T09:36:02.033750+00:00",
        "meta_object_name": "IRIDIUM 33 DEB",
        "meta_object_id": "1997-051GN",
        "meta_epoch": "2025-12-19T10:35:53.025216",
        "meta_mean_motion": 14.2747197,
        "meta_eccentricity": 0.0078309,
        "meta_inclination": 86.2774,
        "meta_ra_of_asc_node": 49.5385,
        "meta_arg_of_pericenter": 317.619,
        "meta_mean_anomaly": 57.0969,
        "meta_ephemeris_type": 0,
        "meta_classification_type": "U",
        "meta_norad_cat_id": 34497,
        "meta_element_set_no": 999,
        "meta_rev_at_epoch": 86979,
        "meta_bstar": 0.00044435,
        "meta_mean_motion_dot": 1.145e-05,
        "meta_mean_motion_ddot": 0,
        "tle_line1": "1 34497U 97051GN  25353.44158594  .00001145  00000+0  44435-3 0  9990",
        "tle_line2": "2 34497  86.2774  49.5385 0078309 317.6190  57.0969 14.27471970869798"
      },
      "geometry": {
        "type": "Point",
        "coordinates": [
          -116.04046181938567,
          -75.72903676159581
        ]
      }
    },
    {
      "type": "Feature",
      "properties": {
        "norad_id": 34508,
        "name": "IRIDIUM 33 DEB",
        "group": "iridium-33-debris",
        "lat": -2.8235411781817095,
        "lon": 99.21667621469999,
        "alt_km": 808.4155483685972,
        "timestamp": "2025-12-20T09:36:02.033761+00:00",
        "meta_object_name": "IRIDIUM 33 DEB",
        "meta_object_id": "1997-051GZ",
        "meta_epoch": "2025-12-19T06:54:06.441120",
        "meta_mean_motion": 14.38473954,
        "meta_eccentricity": 0.0066492,
        "meta_inclination": 86.3709,
        "meta_ra_of_asc_node": 99.8676,
        "meta_arg_of_pericenter": 151.959,
        "meta_mean_anomaly": 208.5216,
        "meta_ephemeris_type": 0,
        "meta_classification_type": "U",
        "meta_norad_cat_id": 34508,
        "meta_element_set_no": 999,
        "meta_rev_at_epoch": 87403,
        "meta_bstar": 0.00082341,
        "meta_mean_motion_dot": 2.599e-05,
        "meta_mean_motion_ddot": 0,
        "tle_line1": "1 34508U 97051GZ  25353.28757455  .00002599  00000+0  82341-3 0  9998",
        "tle_line2": "2 34508  86.3709  99.8676 0066492 151.9590 208.5216 14.38473954874031"
      },
      "geometry": {
        "type": "Point",
        "coordinates": [
          99.21667621469999,
          -2.8235411781817095
        ]
      }
    },
    {
      "type": "Feature",
      "properties": {
        "norad_id": 34521,
        "name": "IRIDIUM 33 DEB",
        "group": "iridium-33-debris",
        "lat": 37.60333802885618,
        "lon": -155.62030894387405,
        "alt_km": 678.1306739316533,
        "timestamp": "2025-12-20T09:36:02.033771+00:00",
        "meta_object_name": "IRIDIUM 33 DEB",
        "meta_object_id": "1997-051HN",
        "meta_epoch": "2025-12-20T04:01:46.444224",
        "meta_mean_motion": 14.63423116,
        "meta_eccentricity": 0.0002486,
        "meta_inclination": 86.3788,
        "meta_ra_of_asc_node": 27.2776,
        "meta_arg_of_pericenter": 181.4323,
        "meta_mean_anomaly": 178.6882,
        "meta_ephemeris_type": 0,
        "meta_classification_type": "U",
        "meta_norad_cat_id": 34521,
        "meta_element_set_no": 999,
        "meta_rev_at_epoch": 88581,
        "meta_bstar": 0.00053689,
        "meta_mean_motion_dot": 2.798e-05,
        "meta_mean_motion_ddot": 0,
        "tle_line1": "1 34521U 97051HN  25354.16789866  .00002798  00000+0  53689-3 0  9996",
        "tle_line2": "2 34521  86.3788  27.2776 0002486 181.4323 178.6882 14.63423116885811"
      },
      "geometry": {
        "type": "Point",
        "coordinates": [
          -155.62030894387405,
          37.60333802885618
        ]
      }
    },
    {
      "type": "Feature",
      "properties": {
        "norad_id": 34525,
        "name": "IRIDIUM 33 DEB",
        "group": "iridium-33-debris",
        "lat": 62.47981675779857,
        "lon": -143.42032583487918,
        "alt_km": 739.3182128734707,
        "timestamp": "2025-12-20T09:36:02.033781+00:00",
        "meta_object_name": "IRIDIUM 33 DEB",
        "meta_object_id": "1997-051HS",
        "meta_epoch": "2025-12-20T04:21:41.243904",
        "meta_mean_motion": 14.42921764,
        "meta_eccentricity": 0.0006471,
        "meta_inclination": 86.3721,
        "meta_ra_of_asc_node": 43.6672,
        "meta_arg_of_pericenter": 78.1419,
        "meta_mean_anomaly": 345.8375,
        "meta_ephemeris_type": 0,
        "meta_classification_type": "U",
        "meta_norad_cat_id": 34525,
        "meta_element_set_no": 999,
        "meta_rev_at_epoch": 88195,
        "meta_bstar": 0.0002401,
        "meta_mean_motion_dot": 8.22e-06,
        "meta_mean_motion_ddot": 0,
        "tle_line1": "1 34525U 97051HS  25354.18172736  .00000822  00000+0  24010-3 0  9996",
        "tle_line2": "2 34525  86.3721  43.6672 0006471  78.1419 345.8375 14.42921764881950"
      },
      "geometry": {
        "type": "Point",
        "coordinates": [
          -143.42032583487918,
          62.47981675779857
        ]
      }
    },
    {
      "type": "Feature",
      "properties": {
        "norad_id": 34529,
        "name": "IRIDIUM 33 DEB",
        "group": "iridium-33-debris",
        "lat": -51.138305279755386,
        "lon": 27.619305246616936,
        "alt_km": 767.1307405273692,
        "timestamp": "2025-12-20T09:36:02.033794+00:00",
        "meta_object_name": "IRIDIUM 33 DEB",
        "meta_object_id": "1997-051HW",
        "meta_epoch": "2025-12-20T03:10:13.579104",
        "meta_mean_motion": 14.40621204,
        "meta_eccentricity": 0.0005683,
        "meta_inclination": 86.3633,
        "meta_ra_of_asc_node": 32.2604,
        "meta_arg_of_pericenter": 154.9999,
        "meta_mean_anomaly": 205.1477,
        "meta_ephemeris_type": 0,
        "meta_classification_type": "U",
        "meta_norad_cat_id": 34529,
        "meta_element_set_no": 999,
        "meta_rev_at_epoch": 88248,
        "meta_bstar": 8.3295e-05,
        "meta_mean_motion_dot": 2.86e-06,
        "meta_mean_motion_ddot": 0,
        "tle_line1": "1 34529U 97051HW  25354.13210161  .00000286  00000+0  83295-4 0  9995",
        "tle_line2": "2 34529  86.3633  32.2604 0005683 154.9999 205.1477 14.40621204882489"
      },
      "geometry": {
        "type": "Point",
        "coordinates": [
          27.619305246616936,
          -51.138305279755386
        ]
      }
    },
    {
      "type": "Feature",
      "properties": {
        "norad_id": 34538,
        "name": "IRIDIUM 33 DEB",
        "group": "iridium-33-debris",
        "lat": -22.090284216834984,
        "lon": -176.28488784699837,
        "alt_km": 758.828305708791,
        "timestamp": "2025-12-20T09:36:02.033807+00:00",
        "meta_object_name": "IRIDIUM 33 DEB",
        "meta_object_id": "1997-051JF",
        "meta_epoch": "2025-12-20T00:28:24.612384",
        "meta_mean_motion": 14.42687495,
        "meta_eccentricity": 0.003219,
        "meta_inclination": 86.2759,
        "meta_ra_of_asc_node": 2.3669,
        "meta_arg_of_pericenter": 302.8959,
        "meta_mean_anomaly": 85.6227,
        "meta_ephemeris_type": 0,
        "meta_classification_type": "U",
        "meta_norad_cat_id": 34538,
        "meta_element_set_no": 999,
        "meta_rev_at_epoch": 87861,
        "meta_bstar": 0.00063105,
        "meta_mean_motion_dot": 2.13e-05,
        "meta_mean_motion_ddot": 0,
        "tle_line1": "1 34538U 97051JF  25354.01972931  .00002130  00000+0  63105-3 0  9999",
        "tle_line2": "2 34538  86.2759   2.3669 0032190 302.8959  85.6227 14.42687495878619"
      },
      "geometry": {
        "type": "Point",
        "coordinates": [
          -176.28488784699837,
          -22.090284216834984
        ]
      }
    }
  ]
}